{
  "type": "FeatureCollection",
  "features": [
    {
      "type": "Feature",
      "properties": {
        "norad_id": 37483,
        "name": "COSMOS 2251 DEB",
        "group": "cosmos-2251-debris",
        "lat": 31.854445633076647,
        "lon": -29.628439969788054,
        "alt_km": 792.9089792211416,
        "timestamp": "2025-12-03T10:52:57.854188+00:00",
        "meta_object_name": "COSMOS 2251 DEB",
        "meta_object_id": "1993-036BLL",
        "meta_epoch": "2025-12-02T19:14:27.104640",
        "meta_mean_motion": 14.43532369,
        "meta_eccentricity": 0.0092654,
        "meta_inclination": 73.9725,
        "meta_ra_of_asc_node": 161.8757,
        "meta_arg_of_pericenter": 10.6514,
        "meta_mean_anomaly": 349.6574,
        "meta_ephemeris_type": 0,
        "meta_classification_type": "U",
        "meta_norad_cat_id": 37483,
        "meta_element_set_no": 999,
        "meta_rev_at_epoch": 65136,
        "meta_bstar": 0.00025341,
        "meta_mean_motion_dot": 8.75e-06,
        "meta_mean_motion_ddot": 0,
        "tle_line1": "1 37483U 93036BLL 25336.80170260  .00000875  00000+0  25341-3 0  9996",
        "tle_line2": "2 37483  73.9725 161.8757 0092654  10.6514 349.6574 14.43532369651367"
      },
      "geometry": {
        "type": "Point",
        "coordinates": [
          -29.628439969788054,
          31.854445633076647
        ]
      }
    },
    {
      "type": "Feature",
      "properties": {
        "norad_id": 37484,
        "name": "COSMOS 2251 DEB",
        "group": "cosmos-2251-debris",
        "lat": 73.2801986203804,
        "lon": -29.213096636704886,
        "alt_km": 773.5456091302221,
        "timestamp": "2025-12-03T10:52:57.854199+00:00",
        "meta_object_name": "COSMOS 2251 DEB",
        "meta_object_id": "1993-036BLM",
        "meta_epoch": "2025-12-01T23:33:59.283360",
        "meta_mean_motion": 14.41705464,
        "meta_eccentricity": 0.00403232,
        "meta_inclination": 73.8236,
        "meta_ra_of_asc_node": 228.6314,
        "meta_arg_of_pericenter": 264.9502,
        "meta_mean_anomaly": 115.0574,
        "meta_ephemeris_type": 0,
        "meta_classification_type": "U",
        "meta_norad_cat_id": 37484,
        "meta_element_set_no": 999,
        "meta_rev_at_epoch": 65224,
        "meta_bstar": 0.00080475582,
        "meta_mean_motion_dot": 2.622e-05,
        "meta_mean_motion_ddot": 0,
        "tle_line1": "1 37484U 93036BLM 25335.98193615  .00002622  00000+0  80476-3 0  9996",
        "tle_line2": "2 37484  73.8236 228.6314 0040323 264.9502 115.0574 14.41705464652241"
      },
      "geometry": {
        "type": "Point",
        "coordinates": [
          -29.213096636704886,
          73.2801986203804
        ]
      }
    },
    {
      "type": "Feature",
      "properties": {
        "norad_id": 37486,
        "name": "COSMOS 2251 DEB",
        "group": "cosmos-2251-debris",
        "lat": -41.038461250779655,
        "lon": -33.84584755151435,
        "alt_km": 975.7995301415085,
        "timestamp": "2025-12-03T10:52:57.854209+00:00",
        "meta_object_name": "COSMOS 2251 DEB",
        "meta_object_id": "1993-036BLP",
        "meta_epoch": "2025-12-02T16:54:10.955808",
        "meta_mean_motion": 14.13188429,
        "meta_eccentricity": 0.0228993,
        "meta_inclination": 73.688,
        "meta_ra_of_asc_node": 132.7403,
        "meta_arg_of_pericenter": 2.4987,
        "meta_mean_anomaly": 12.5088,
        "meta_ephemeris_type": 0,
        "meta_classification_type": "U",
        "meta_norad_cat_id": 37486,
        "meta_element_set_no": 999,
        "meta_rev_at_epoch": 63228,
        "meta_bstar": 0.0021348,
        "meta_mean_motion_dot": 5.104e-05,
        "meta_mean_motion_ddot": 0,
        "tle_line1": "1 37486U 93036BLP 25336.70429347  .00005104  00000+0  21348-2 0  9993",
        "tle_line2": "2 37486  73.6880 132.7403 0228993   2.4987  12.5088 14.13188429632281"
      },
      "geometry": {
        "type": "Point",
        "coordinates": [
          -33.84584755151435,
          -41.038461250779655
        ]
      }
    },
    {
      "type": "Feature",
      "properties": {
        "norad_id": 37487,
        "name": "COSMOS 2251 DEB",
        "group": "cosmos-2251-debris",
        "lat": -43.263219680417414,
        "lon": 46.31702441517913,
        "alt_km": 652.0900233217162,
        "timestamp": "2025-12-03T10:52:57.854219+00:00",
        "meta_object_name": "COSMOS 2251 DEB",
        "meta_object_id": "1993-036BLQ",
        "meta_epoch": "2025-12-03T01:45:33.374880",
        "meta_mean_motion": 14.80341914,
        "meta_eccentricity": 0.0025224,
        "meta_inclination": 73.9032,
        "meta_ra_of_asc_node": 211.3022,
        "meta_arg_of_pericenter": 51.1767,
        "meta_mean_anomaly": 309.1655,
        "meta_ephemeris_type": 0,
        "meta_classification_type": "U",
        "meta_norad_cat_id": 37487,
        "meta_element_set_no": 999,
        "meta_rev_at_epoch": 81102,
        "meta_bstar": 0.0039664,
        "meta_mean_motion_dot": 0.00030521,
        "meta_mean_motion_ddot": 0,
        "tle_line1": "1 37487U 93036BLQ 25337.07330295  .00030521  00000+0  39664-2 0  9999",
        "tle_line2": "2 37487  73.9032 211.3022 0025224  51.1767 309.1655 14.80341914811024"
      },
      "geometry": {
        "type": "Point",
        "coordinates": [
          46.31702441517913,
          -43.263219680417414
        ]
      }
    },
    {
      "type": "Feature",
      "properties": {
        "norad_id": 37491,
        "name": "COSMOS 2251 DEB",
        "group": "cosmos-2251-debris",
        "lat": -73.39310948446636,
        "lon": -174.87100013111112,
        "alt_km": 764.9832371028369,
        "timestamp": "2025-12-03T10:52:57.854229+00:00",
        "meta_object_name": "COSMOS 2251 DEB",
        "meta_object_id": "1993-036BLU",
        "meta_epoch": "2025-12-01T13:55:34.044096",
        "meta_mean_motion": 13.75223452,
        "meta_eccentricity": 0.03181876,
        "meta_inclination": 73.9059,
        "meta_ra_of_asc_node": 292.8015,
        "meta_arg_of_pericenter": 287.8478,
        "meta_mean_anomaly": 68.8175,
        "meta_ephemeris_type": 0,
        "meta_classification_type": "U",
        "meta_norad_cat_id": 37491,
        "meta_element_set_no": 999,
        "meta_rev_at_epoch": 55593,
        "meta_bstar": 0.0015718852,
        "meta_mean_motion_dot": 2.153e-05,
        "meta_mean_motion_ddot": 0,
        "tle_line1": "1 37491U 93036BLU 25335.58025514  .00002153  00000+0  15719-2 0  9998",
        "tle_line2": "2 37491  73.9059 292.8015 0318187 287.8478  68.8175 13.75223452555934"
      },
      "geometry": {
        "type": "Point",
        "coordinates": [
          -174.87100013111112,
          -73.39310948446636
        ]
      }
    },
    {
      "type": "Feature",
      "properties": {
        "norad_id": 37498,
        "name": "COSMOS 2251 DEB",
        "group": "cosmos-2251-debris",
        "lat": -0.16089736425963314,
        "lon": 21.50360571668573,
        "alt_km": 711.7101181523067,
        "timestamp": "2025-12-03T10:52:57.854240+00:00",
        "meta_object_name": "COSMOS 2251 DEB",
        "meta_object_id": "1993-036BMB",
        "meta_epoch": "2025-12-02T07:38:53.705760",
        "meta_mean_motion": 14.54689112,
        "meta_eccentricity": 0.00134342,
        "meta_inclination": 74.038,
        "meta_ra_of_asc_node": 203.6034,
        "meta_arg_of_pericenter": 264.7495,
        "meta_mean_anomaly": 95.2135,
        "meta_ephemeris_type": 0,
        "meta_classification_type": "U",
        "meta_norad_cat_id": 37498,
        "meta_element_set_no": 999,
        "meta_rev_at_epoch": 65203,
        "meta_bstar": 0.00080152077,
        "meta_mean_motion_dot": 3.406e-05,
        "meta_mean_motion_ddot": 0,
        "tle_line1": "1 37498U 93036BMB 25336.31867715  .00003406  00000+0  80152-3 0  9990",
        "tle_line2": "2 37498  74.0380 203.6034 0013434 264.7495  95.2135 14.54689112652037"
      },
      "geometry": {
        "type": "Point",
        "coordinates": [
          21.50360571668573,
          -0.16089736425963314
        ]
      }
    },
    {
      "type": "Feature",
      "properties": {
        "norad_id": 37499,
        "name": "COSMOS 2251 DEB",
        "group": "cosmos-2251-debris",
        "lat": -6.359083511777975,
        "lon": -22.636322773950855,
        "alt_km": 772.5099732231738,
        "timestamp": "2025-12-03T10:52:57.854250+00:00",
        "meta_object_name": "COSMOS 2251 DEB",
        "meta_object_id": "1993-036BMC",
        "meta_epoch": "2025-12-02T18:10:26.857056",
        "meta_mean_motion": 14.34326576,
        "meta_eccentricity": 0.0026618,
        "meta_inclination": 74.0374,
        "meta_ra_of_asc_node": 340.4656,
        "meta_arg_of_pericenter": 59.6085,
        "meta_mean_anomaly": 300.7692,
        "meta_ephemeris_type": 0,
        "meta_classification_type": "U",
        "meta_norad_cat_id": 37499,
        "meta_element_set_no": 999,
        "meta_rev_at_epoch": 85006,
        "meta_bstar": 0.00020272,
        "meta_mean_motion_dot": 5.46e-06,
        "meta_mean_motion_ddot": 0,
        "tle_line1": "1 37499U 93036BMC 25336.75725529  .00000546  00000+0  20272-3 0  9994",
        "tle_line2": "2 37499  74.0374 340.4656 0026618  59.6085 300.7692 14.34326576850060"
      },
      "geometry": {
        "type": "Point",
        "coordinates": [
          -22.636322773950855,
          -6.359083511777975
        ]
      }
    }
  ]
}